      2.10          N: GNSS NAV DATA                        RINEX VERSION / TYPE
fic2rin                                 02/22/2023 00:17:55 PGM / RUN BY / DATE
                                                            END OF HEADER
3  23  2 21  1 59 44.0 -.360576901585D-03  .477484718431D-11  .000000000000D+00
     .360000000000D+02 -.116562500000D+02  .463555023213D-08  .155511948307D+01
    -.752508640289D-06  .447846215684D-02  .938773155212D-06  .515371429634D+04
     .179984000000D+06 -.100582838058D-06 -.123002150057D+01  .223517417908D-07
     .977304222244D+00  .369531250000D+03  .101429710193D+01 -.851142596363D-08
    -.136791412197D-09  .100000000000D+01  .225000000000D+04  .000000000000D+00
     .240000000000D+01  .000000000000D+00  .186264514923D-08  .360000000000D+02
     .172800000000D+06  .400000000000D+01
7  23  2 21  1 59 44.0  .237132422626D-03 -.727595761418D-11  .000000000000D+00
     .200000000000D+01  .469687500000D+02  .461697802995D-08  .211412855163D+01
     .231713056564D-05  .167755445000D-01  .109169632196D-04  .515359509277D+04
     .179984000000D+06 -.219792127609D-06  .866598148217D+00 -.407919287682D-06
     .950503419666D+00  .163531250000D+03 -.222376659306D+01 -.799426156451D-08
     .725030200418D-09  .100000000000D+01  .225000000000D+04  .000000000000D+00
     .240000000000D+01  .000000000000D+00 -.111758708954D-07  .200000000000D+01
     .172800000000D+06  .400000000000D+01
31 23  2 21 16  0  0.0 -.209847465158D-03 -.102318153949D-11  .000000000000D+00
     .200000000000D+02  .551250000000D+02  .469912430882D-08  .258680621175D+01
     .276230275631D-05  .107642137446D-01  .125449150801D-04  .515366209793D+04
     .230400000000D+06 -.128522515297D-06  .885769353175D+00 -.838190317154D-07
     .954625371293D+00  .133250000000D+03  .501730307630D+00 -.793461622290D-08
     .632526347261D-09  .100000000000D+01  .225000000000D+04  .000000000000D+00
     .240000000000D+01  .000000000000D+00 -.135041773319D-07  .200000000000D+02
     .223200000000D+06  .400000000000D+01
30 23  2 21 16  0  0.0 -.529523007572D-03  .136424205266D-11  .000000000000D+00
     .160000000000D+02  .495625000000D+02  .506056793582D-08  .303086965506D+01
     .259093940258D-05  .615992292296D-02  .116191804409D-04  .515364109993D+04
     .230400000000D+06 -.298023223877D-07  .873726788559D+00 -.106170773506D-06
     .935656632734D+00  .145031250000D+03 -.264886180105D+01 -.815855412224D-08
     .575738267524D-09  .100000000000D+01  .225000000000D+04  .000000000000D+00
     .240000000000D+01  .000000000000D+00  .372529029846D-08  .160000000000D+02
     .223200000000D+06  .400000000000D+01
32 23  2 21 16  0  0.0 -.402983743697D-03 -.114823706099D-10  .000000000000D+00
     .530000000000D+02 -.111781250000D+03  .451197365610D-08  .396823568563D+00
    -.588223338127D-05  .665560585912D-02  .107660889626D-04  .515371939278D+04
     .230400000000D+06 -.186264514923D-07 -.192291749883D+00  .102445483208D-06
     .959760121587D+00  .171875000000D+03 -.225260439641D+01 -.822712840721D-08
    -.421803284086D-09  .100000000000D+01  .225000000000D+04  .000000000000D+00
     .240000000000D+01  .000000000000D+00  .465661287308D-09  .530000000000D+02
     .223200000000D+06  .400000000000D+01
24 23  2 21 16  0  0.0 -.831861980259D-04 -.158024704433D-10  .000000000000D+00
     .990000000000D+02  .535937500000D+02  .503556689443D-08 -.222924646474D+01
     .257231295109D-05  .137163273757D-01  .117085874081D-04  .515366459274D+04
     .230400000000D+06  .111758708954D-06  .777142827438D+00 -.104308128357D-06
     .934181676302D+00  .137937500000D+03  .885632460615D+00 -.806176437627D-08
     .658241704123D-09  .100000000000D+01  .225000000000D+04  .000000000000D+00
     .240000000000D+01  .000000000000D+00  .232830643654D-08  .990000000000D+02
     .223200000000D+06  .400000000000D+01
16 23  2 21 16  0  0.0 -.519032590091D-03  .181898940355D-11  .000000000000D+00
     .820000000000D+02 -.643750000000D+01  .512092759290D-08  .522453218091D+00
    -.428408384323D-07  .134098177077D-01  .383704900742D-05  .515354290962D+04
     .230400000000D+06 -.121071934700D-06  .199945410751D+01  .180676579475D-06
     .965648169362D+00  .306812500000D+03  .773243281784D+00 -.865571768824D-08
    -.245724521127D-09  .100000000000D+01  .225000000000D+04  .000000000000D+00
     .240000000000D+01  .000000000000D+00 -.102445483208D-07  .820000000000D+02
     .223200000000D+06  .400000000000D+01
13 23  2 21 16  0  0.0  .479714479297D-03  .602540239925D-11  .000000000000D+00
     .690000000000D+02 -.934062500000D+02  .416053044565D-08 -.743784079101D+00
    -.483356416225D-05  .677651318256D-02  .113677233458D-04  .515367800140D+04
     .230400000000D+06 -.558793544769D-08 -.463625847192D-01  .141561031342D-06
     .970022668926D+00  .167500000000D+03  .933437428433D+00 -.797318925819D-08
    -.253224833545D-09  .100000000000D+01  .225000000000D+04  .000000000000D+00
     .240000000000D+01  .000000000000D+00 -.111758708954D-07  .690000000000D+02
     .223200000000D+06  .400000000000D+01
27 23  2 21 16  0  0.0  .970591790974D-04 -.898126018001D-11  .000000000000D+00
     .550000000000D+02 -.493750000000D+02  .433875215501D-08 -.273611209759D+00
    -.255927443504D-05  .113674890017D-01  .112820416689D-04  .515366237640D+04
     .230400000000D+06  .894069671631D-07  .295499024039D+01  .137835741043D-06
     .969117023157D+00  .164281250000D+03  .699931001610D+00 -.812283834882D-08
    -.721458623076D-09  .100000000000D+01  .225000000000D+04  .000000000000D+00
     .240000000000D+01  .000000000000D+00  .186264514923D-08  .550000000000D+02
     .223200000000D+06  .400000000000D+01
21 23  2 21 16  0  0.0  .154116656631D-03  .227373675443D-12  .000000000000D+00
     .620000000000D+02  .885625000000D+02  .428339270621D-08 -.343147813941D+00
     .453554093838D-05  .248663889943D-01  .118184834719D-04  .515365176964D+04
     .230400000000D+06 -.203028321266D-06 -.236323979394D+01 -.491738319397D-06
     .961570620225D+00  .159062500000D+03 -.810375994499D+00 -.827498754359D-08
     .400016662300D-09  .100000000000D+01  .225000000000D+04  .000000000000D+00
     .240000000000D+01  .000000000000D+00 -.102445483208D-07  .620000000000D+02
     .223200000000D+06  .400000000000D+01
26 23  2 21 16  0  0.0  .241667497903D-03  .227373675443D-12  .000000000000D+00
     .690000000000D+02  .150937500000D+02  .589667419158D-08  .149903758809D+01
     .100396573544D-05  .786212156527D-02  .353157520294D-05  .515363255310D+04
     .230400000000D+06 -.596046447754D-07  .184591169576D+01  .109896063805D-06
     .934287516962D+00  .299468750000D+03  .453161635132D+00 -.895001566122D-08
    -.414302971667D-10  .100000000000D+01  .225000000000D+04  .000000000000D+00
     .240000000000D+01  .000000000000D+00  .698491930962D-08  .690000000000D+02
     .223200000000D+06  .400000000000D+01
19 23  2 21 16  0  0.0  .280729494989D-03  .511590769747D-11  .000000000000D+00
     .500000000000D+02 -.448750000000D+02  .404016828923D-08  .181705645003D+01
    -.225752592087D-05  .910560623743D-02  .119097530842D-04  .515360900307D+04
     .230400000000D+06  .132247805595D-06  .306455055552D+01  .707805156708D-07
     .974820662793D+00  .155843750000D+03  .224470500744D+01 -.769710632966D-08
    -.635740766869D-09  .100000000000D+01  .225000000000D+04  .000000000000D+00
     .240000000000D+01  .000000000000D+00 -.153668224812D-07  .500000000000D+02
     .223200000000D+06  .400000000000D+01
17 23  2 21 16  0  0.0  .701434910297D-03  .238742359215D-11  .000000000000D+00
     .440000000000D+02 -.477187500000D+02  .412160025262D-08 -.325802721345D+00
    -.252947211266D-05  .136404309887D-01  .117439776659D-04  .515371886253D+04
     .230400000000D+06 -.266358256340D-06  .301996815924D+01  .316649675369D-07
     .975794268422D+00  .167000000000D+03 -.141902682693D+01 -.803104881113D-08
    -.533593654889D-09  .100000000000D+01  .225000000000D+04  .000000000000D+00
     .240000000000D+01  .000000000000D+00 -.111758708954D-07  .440000000000D+02
     .223200000000D+06  .400000000000D+01
14 23  2 21 16  0  0.0 -.217100605369D-04  .932232069317D-11  .000000000000D+00
     .142000000000D+03  .359375000000D+01  .543844081860D-08  .243762639727D+01
     .212341547012D-06  .269816210493D-02  .323541462421D-05  .515365916634D+04
     .230400000000D+06 -.894069671631D-07  .194390759958D+01  .782310962677D-07
     .949240603910D+00  .312250000000D+03 -.308532862969D+01 -.867929009870D-08
    -.257153568621D-10  .100000000000D+01  .225000000000D+04  .000000000000D+00
     .240000000000D+01  .000000000000D+00 -.791624188423D-08  .142000000000D+03
     .223200000000D+06  .400000000000D+01
15 23  2 21 16  0  0.0  .154352746904D-04  .329691829393D-11  .000000000000D+00
     .113000000000D+03 -.114218750000D+03  .521021702645D-08 -.125762366041D+01
    -.567734241486D-05  .147506500361D-01  .874698162079D-05  .515368289566D+04
     .230400000000D+06  .111758708954D-06 -.320876644612D+00  .355765223503D-06
     .932233976430D+00  .190750000000D+03  .118048336104D+01 -.852178353792D-08
    -.378230040514D-09  .100000000000D+01  .225000000000D+04  .000000000000D+00
     .240000000000D+01  .000000000000D+00 -.107102096081D-07  .113000000000D+03
     .223200000000D+06  .400000000000D+01
23 23  2 21 16  0  0.0  .715721398592D-05  .170530256582D-11  .000000000000D+00
     .260000000000D+02  .234375000000D+01  .474269755239D-08  .286641487069D+01
     .299885869026D-06  .300306268036D-02  .134855508804D-05  .515364327621D+04
     .230400000000D+06 -.856816768646D-07 -.125986687266D+01 -.614672899246D-07
     .972165503053D+00  .357781250000D+03 -.309745739529D+01 -.852821237713D-08
     .133219834855D-09  .100000000000D+01  .225000000000D+04  .000000000000D+00
     .240000000000D+01  .000000000000D+00 -.838190317154D-08  .794000000000D+03
     .223200000000D+06  .400000000000D+01
